satname,norad_id,inclination_deg,eccentricity,mean_motion_rev_per_day,perigee_km,apogee_km,l1,l2
STARLINK-1143,45179,53.048,0.0007358,15.63164433,373.55143810020036,383.49453893930604,1 45179U 20012B   26069.84463223  .00086249  00000+0  92185-3 0  9992,2 45179  53.0480 324.2511 0007358 103.4322 256.7512 15.63164433336101
STARLINK-1202,45183,53.1636,0.0001699,15.30187358,474.08842548265784,476.4172073422742,1 45183U 20012F   26069.14572356 -.00001640  00000+0 -43272-4 0  9996,2 45183  53.1636  37.1315 0001699  86.1770 273.9425 15.30187358335027
STARLINK-1216,45185,53.1619,0.0001287,15.30186172,474.3743259206067,476.1383893708653,1 45185U 20012H   26069.13623625 -.00002234  00000+0 -63362-4 0  9995,2 45185  53.1619  37.1580 0001287  99.0230 261.0917 15.30186172334960
STARLINK-1225,45187,53.1593,0.0001057,15.30179192,474.5527931798606,476.0016049415426,1 45187U 20012K   26069.13314763  .00005029  00000+0  18190-3 0  9998,2 45187  53.1593  37.6094 0001057  83.6474 276.4647 15.30179192335002
STARLINK-1230,45189,53.1603,0.0001222,15.3019132,474.40350366731036,476.0784692472007,1 45189U 20012M   26069.14262692 -.00000577  00000+0 -73749-5 0  9992,2 45189  53.1603  37.6275 0001222  90.9110 269.2031 15.30191320332235
STARLINK-1234,45190,53.0438,0.0003647,15.62716898,377.348296062848,382.2775447347867,1 45190U 20012N   26069.83334490  .00113115  00000+0  12256-2 0  9990,2 45190  53.0438 319.7108 0003647 306.5935 223.5694 15.62716898  5812
STARLINK-1269,45197,53.1622,0.0001209,15.30192126,474.41000675723535,476.0671529724468,1 45197U 20012V   26069.33540854  .00001249  00000+0  54291-4 0  9996,2 45197  53.1622  36.5888 0001209  71.9416 288.1716 15.30192126335010
STARLINK-1154,45198,53.0495,0.0007253,15.46204168,422.9057825849277,432.77853595336364,1 45198U 20012W   26069.20314394  .00116610  00000+0  23077-2 0  9996,2 45198  53.0495   7.5581 0007253  94.0293 266.1543 15.46204168335370
STARLINK-1199,45201,53.1587,0.0001531,15.29929382,474.9738331618073,477.07257701660455,1 45201U 20012Z   26069.82719782  .00092368  00000+0  31181-2 0  9997,2 45201  53.1587  18.5508 0001531  90.6716 269.4460 15.29929382335337
STARLINK-1209,45206,53.048,0.0005924,15.51204337,409.18545238844854,417.2318387092946,1 45206U 20012AE  26069.12606708  .00128701  00000+0  21348-2 0  9993,2 45206  53.0480 331.3454 0005924 274.6170  85.4161 15.51204337334982
STARLINK-1231,45212,53.0505,0.000439,15.21285495,498.9417034184871,504.98243039923364,1 45212U 20012AL  26069.86270478  .00079771  00000+0  34982-2 0  9992,2 45212  53.0505  10.4067 0004390  91.9583 268.1915 15.21285495335402
STARLINK-1271,45217,53.1593,0.0001061,15.30184117,474.53534791833044,475.98963929087404,1 45217U 20012AR  26069.82511418 -.00002589  00000+0 -75349-4 0  9994,2 45217  53.1593  18.6873 0001061 102.7920 257.3200 15.30184117335336
STARLINK-1191,45222,53.1621,0.0001291,15.3018991,474.360424864567,476.12996814770486,1 45222U 20012AW  26069.19199546  .00001108  00000+0  49554-4 0  9997,2 45222  53.1621 356.4906 0001291  64.1895 295.9239 15.30189910335595
STARLINK-1212,45223,53.0499,0.0005922,15.52364287,405.80532899929585,413.84499138182673,1 45223U 20012AX  26069.81687823  .00114956  00000+0  18333-2 0  9992,2 45223  53.0499 344.6626 0005922 119.2719 240.8883 15.52364287335813
STARLINK-1215,45225,53.1618,0.0001406,15.30208961,474.2247360800311,476.1518911582207,1 45225U 20012AZ  26069.17820604  .00009966  00000+0  34807-3 0  9998,2 45225  53.1618 356.0349 0001406  76.1142 284.0016 15.30208961335553
STARLINK-1221,45227,53.0647,0.000321,15.41963336,438.1266250405806,442.5040714481529,1 45227U 20012BB  26069.81899848  .00021131  00000+0  49686-3 0  9996,2 45227  53.0647 264.2635 0003210  49.9708 310.1578 15.41963336336882
STARLINK-1222,45228,53.057,0.000394,15.4955278,415.3557025982391,420.7110848685006,1 45228U 20012BC  26069.71732870  .00028049  00000+0  50610-3 0  9991,2 45228  53.0570 337.8850 0003940  89.8587 270.2872 15.49552780335788
STARLINK-1226,45229,53.1603,0.0001288,15.30185771,474.3748377590682,476.1402721964296,1 45229U 20012BD  26069.20776247 -.00000528  00000+0 -57027-5 0  9997,2 45229  53.1603 356.2173 0001288 117.9183 242.1949 15.30185771335491
STARLINK-1227,45230,53.1607,0.0001077,15.31033427,471.98989740087745,473.46557366491106,1 45230U 20012BE  26069.81652376 -.00000305  00000+0  18836-5 0  9999,2 45230  53.1607 353.6264 0001077 123.5766 236.5338 15.31033427335709
STARLINK-1246,45235,53.1605,0.000136,15.30183543,474.33214493110245,476.19627005954044,1 45235U 20012BK  26069.86733762  .00001483  00000+0  62203-4 0  9991,2 45235  53.1605  33.7799 0001360 108.1996 251.9153 15.30183543335159
STARLINK-1270,45237,53.0511,0.0003651,15.47256271,422.272787545965,427.24026039716864,1 45237U 20012BM  26069.74522596  .00095066  00000+0  18220-2 0  9999,2 45237  53.0511 342.5172 0003651  95.5137 264.6287 15.47256271335834
STARLINK-1279,45360,53.043,8.07e-05,15.5721687,395.1694581300899,396.26275802173313,1 45360U 20019A   26069.27486566  .00086531  00000+0  11618-2 0  9998,2 45360  53.0430  95.8479 0000807 103.7252 256.3849 15.57216870330760
STARLINK-1301,45361,53.0422,0.000107,15.6500454,372.5033066800743,373.9480982984078,1 45361U 20019B   26069.36267847  .00066342  00000+0  66309-3 0  9994,2 45361  53.0422 100.7694 0001070 189.9631 170.1362 15.65004540330713
STARLINK-1262,45366,53.1553,0.0001298,15.29364951,476.8196207444944,478.59939849839157,1 45366U 20019G   26069.83334490 -.00008454  00000+0 -28087-3 0  9993,2 45366  53.1553 159.8079 0001298  80.6459 197.8106 15.29364951  5821
STARLINK-1273,45367,53.0507,0.0002187,15.44454028,431.49318347895496,434.47236726870324,1 45367U 20019H   26069.63478548  .00091559  00000+0  19330-2 0  9991,2 45367  53.0507 150.3208 0002187   0.7712 359.3297 15.44454028330046
STARLINK-1276,45368,53.0633,0.0002222,15.0953862,536.0721319943623,539.1454894326434,1 45368U 20019J   26069.83334490  .00064904  00000+0  39816-2 0  9996,2 45368  53.0633 161.4712 0002222  71.6784  49.1958 15.09538620  5821
STARLINK-1277,45369,53.0513,0.0002607,15.49049444,417.73336488557925,421.27765569044277,1 45369U 20019K   26069.46857968  .00102480  00000+0  18430-2 0  9997,2 45369  53.0513 148.8831 0002607  18.6434 341.4668 15.49049444330057
STARLINK-1281,45370,53.1566,0.0001526,15.29335524,476.7512391235923,478.8436703191737,1 45370U 20019L   26069.83334490 -.00005567  00000+0 -18084-3 0  9996,2 45370  53.1566 159.9723 0001526  93.2138 194.0337 15.29335524  5824
STARLINK-1300,45374,53.157,0.00011,15.29351553,476.995402817176,478.50369785825023,1 45374U 20019Q   26069.66807561  .00000411  00000+0  26566-4 0  9991,2 45374  53.1570 160.6958 0001100 100.2777 259.8347 15.29351553329907
STARLINK-1302,45375,53.0531,0.0002981,15.5370026,403.911115345114,407.9557781454623,1 45375U 20019R   26069.60621042  .00037899  00000+0  58671-3 0  9995,2 45375  53.0531 147.3362 0002981 305.8043  54.2689 15.53700260330089
STARLINK-1304,45376,53.0495,0.000223,15.48471961,419.67921721951825,422.7117195004075,1 45376U 20019S   26069.48448380  .00110068  00000+0  20173-2 0  9999,2 45376  53.0495 145.6970 0002230 327.5880  32.4990 15.48471961330093
STARLINK-1305,45377,53.0439,0.0002817,15.53314393,405.14552219547477,408.9683004451126,1 45377U 20019T   26069.83334490  .00063858  00000+0  99418-3 0  9998,2 45377  53.0439 126.7448 0002817  92.4066  71.9129 15.53314393  5897
STARLINK-1319,45379,53.0441,0.0002347,15.65362764,370.61135387250397,373.7799600216749,1 45379U 20019V   26069.75621345  .00061601  00000+0  60770-3 0  9992,2 45379  53.0441 124.4753 0002347  59.3441 300.7805 15.65362764330425
STARLINK-1266,45383,53.0507,0.0004189,15.4563895,426.64957113447326,432.35301049451846,1 45383U 20019Z   26069.56415035  .00094261  00000+0  19101-2 0  9992,2 45383  53.0507 128.7988 0004189  17.1772 342.9375 15.45638950330336
STARLINK-1267,45384,53.0505,0.0002715,15.49996009,414.8929245362906,418.58254151632354,1 45384U 20019AA  26069.84502557  .00098582  00000+0  17160-2 0  9993,2 45384  53.0505 121.4629 0002715 280.1394  79.9307 15.49996009330464
STARLINK-1272,45386,53.0443,0.0002251,15.56768645,395.49117771355304,398.54135171332746,1 45386U 20019AC  26069.83334490  .00095141  00000+0  12968-2 0  9992,2 45386  53.0443 104.2372 0002251 115.8642 297.8506 15.56768645  5907
STARLINK-1274,45387,53.0274,0.0003606,15.47199656,422.46929365148935,427.3756601462301,1 45387U 20019AD  26069.36816028  .00109002  00000+0  20882-2 0  9999,2 45387  53.0274  99.6911 0003606 237.3752 122.6907 15.47199656330724
STARLINK-1280,45388,53.0426,0.0001255,15.65607255,370.6457888859459,372.33994598267236,1 45388U 20019AE  26069.41679992  .00066899  00000+0  65272-3 0  9992,2 45388  53.0426 118.9154 0001255  87.0942 273.0216 15.65607255330450
STARLINK-1283,45389,53.0437,0.0003175,15.56739446,394.9498452118314,399.2521213312084,1 45389U 20019AF  26069.83334490  .00112049  00000+0  15244-2 0  9992,2 45389  53.0437 104.4485 0003175 251.7507 229.7567 15.56739446  5847
STARLINK-1284,45390,53.0483,0.0004096,15.51973367,408.18415687313245,413.74578920944805,1 45390U 20019AG  26069.45111446  .00102220  00000+0  16572-2 0  9991,2 45390  53.0483 127.3231 0004096  17.3595 342.7553 15.51973367330343
STARLINK-1297,45395,53.0473,0.0004877,15.54337598,400.77114735994473,407.38652068445026,1 45395U 20019AM  26069.71818052  .00089148  00000+0  13299-2 0  9998,2 45395  53.0473 125.7338 0004877  22.0205 338.1013 15.54337598329571
STARLINK-1307,45397,53.0545,0.0002193,15.50072652,415.02368355039744,418.0038173695484,1 45397U 20019AP  26069.45649734  .00028012  00000+0  49637-3 0  9999,2 45397  53.0545 127.0652 0002193  42.9034 317.2145 15.50072652330172
STARLINK-1255,45399,53.0418,0.0001526,15.51996221,409.8623172409252,411.93433082181946,1 45399U 20019AR  26069.39742424  .00112310  00000+0  18166-2 0  9991,2 45399  53.0418  99.3345 0001526 331.8135  28.2791 15.51996221330549
